{
    "links": {
        "self": "http://www.neowsapp.com/rest/v1/neo/3893212?api_key=iIulBulltgU6a56xZRHN4H3l9WmuAYTsLGpBGhQ2"
    },
    "id": "3893212",
    "neo_reference_id": "3893212",
    "name": "(2019 VR5)",
    "designation": "2019 VR5",
    "nasa_jpl_url": "http://ssd.jpl.nasa.gov/sbdb.cgi?sstr=3893212",
    "absolute_magnitude_h": 23.0,
    "estimated_diameter": {
        "kilometers": {
            "estimated_diameter_min": 0.0667659413,
            "estimated_diameter_max": 0.1492931834
        },
        "meters": {
            "estimated_diameter_min": 66.7659413495,
            "estimated_diameter_max": 149.2931834393
        },
        "miles": {
            "estimated_diameter_min": 0.0414864197,
            "estimated_diameter_max": 0.0927664547
        },
        "feet": {
            "estimated_diameter_min": 219.0483710172,
            "estimated_diameter_max": 489.807047955
        }
    },
    "is_potentially_hazardous_asteroid": false,
    "close_approach_data": [
        {
            "close_approach_date": "2019-11-14",
            "close_approach_date_full": "2019-Nov-14 16:41",
            "epoch_date_close_approach": 1573749660000,
            "relative_velocity": {
                "kilometers_per_second": "13.9550613611",
                "kilometers_per_hour": "50238.2209000698",
                "miles_per_hour": "31216.0767587128"
            },
            "miss_distance": {
                "astronomical": "0.2525534267",
                "lunar": "98.2432829863",
                "kilometers": "37781454.695521129",
                "miles": "23476307.3369604202"
            },
            "orbiting_body": "Earth"
        }
    ],
    "orbital_data": {
        "orbit_id": "1",
        "orbit_determination_date": "2019-11-15 09:12:03",
        "first_observation_date": "2019-11-04",
        "last_observation_date": "2019-11-15",
        "data_arc_in_days": 11,
        "observations_used": 9,
        "orbit_uncertainty": "9",
        "minimum_orbit_intersection": ".0216481",
        "jupiter_tisserand_invariant": "4.877",
        "epoch_osculation": "2458792.5",
        "eccentricity": ".3669043369778172",
        "semi_major_axis": "1.288519018352691",
        "inclination": "24.99771296667454",
        "ascending_node_longitude": "215.7474199721513",
        "orbital_period": "534.2378777118915",
        "perihelion_distance": ".815755802240689",
        "perihelion_argument": "292.0713496549703",
        "aphelion_distance": "1.761282234464693",
        "perihelion_time": "2458888.773350711311",
        "mean_anomaly": "295.1255167370165",
        "mean_motion": ".6738571243616386",
        "equinox": "J2000",
        "orbit_class": {
            "orbit_class_type": "APO",
            "orbit_class_description": "Near-Earth asteroid orbits which cross the Earth’s orbit similar to that of 1862 Apollo",
            "orbit_class_range": "a (semi-major axis) > 1.0 AU; q (perihelion) < 1.017 AU"
        }
    },
    "is_sentry_object": false
}